NORAD_CAT_ID,OBJECT_NAME,OBJECT_TYPE,EPOCH,MEAN_MOTION,ECCENTRICITY,INCLINATION,RA_OF_ASC_NODE,ARG_OF_PERICENTER,MEAN_ANOMALY,BSTAR,MEAN_MOTION_DOT,MEAN_MOTION_DDOT,TLE_LINE0,TLE_LINE1,TLE_LINE2,SEMIMAJOR_AXIS,PERIOD,APOGEE,PERIGEE,DECAYED
52478.0,STARLINK-3825,PAYLOAD,2024-06-28 14:50:30,15.08844562,0.0001183,53.217,318.238,85.6178,274.4949,0.00010267,1.347e-05,0.0,0 STARLINK-3825,1 52478U 22049AD  24180.61841186  .00001347  00000-0  10267-3 0  9997,2 52478  53.2170 318.2380 0001183  85.6178 274.4949 15.08844562120037,6917.866,95.437,540.55,538.913,0.0
52478.0,STARLINK-3825,PAYLOAD,2024-06-28 16:25:52,15.08861821,0.0001138,53.2177,317.9402,91.6114,268.5008,0.0002149,3.136e-05,0.0,0 STARLINK-3825,1 52478U 22049AD  24180.68463866  .00003136  00000-0  21490-3 0  9997,2 52478  53.2177 317.9402 0001138  91.6114 268.5008 15.08861821118968,6917.814,95.436,540.466,538.891,0.0
52478.0,STARLINK-3825,PAYLOAD,2024-06-29 01:58:12,15.08852437,0.0001478,53.2164,316.1551,63.993,296.1214,0.00014772,2.065e-05,0.0,0 STARLINK-3825,1 52478U 22049AD  24181.08208387  .00002065  00000-0  14772-3 0  9992,2 52478  53.2164 316.1551 0001478  63.9930 296.1214 15.08852437119022,6917.842,95.437,540.73,538.685,0.0
52478.0,STARLINK-3825,PAYLOAD,2024-06-29 13:05:55,15.08830286,0.0001125,53.2177,314.0745,71.0916,289.0198,-6.5002e-05,-1.322e-05,0.0,0 STARLINK-3825,1 52478U 22049AD  24181.54578425 -.00001322  00000-0 -65002-4 0  9996,2 52478  53.2177 314.0745 0001125  71.0916 289.0198 15.08830286119098,6917.91,95.438,540.553,538.997,0.0
52478.0,STARLINK-3825,PAYLOAD,2024-06-29 14:41:18,15.08832537,0.0001321,53.2177,313.7772,71.669,288.4446,-4.356e-05,-9.81e-06,0.0,0 STARLINK-3825,1 52478U 22049AD  24181.61202312 -.00000981  00000-0 -43560-4 0  9998,2 52478  53.2177 313.7772 0001321  71.6690 288.4446 15.08832537120189,6917.903,95.438,540.682,538.854,0.0
52478.0,STARLINK-3825,PAYLOAD,2024-06-29 17:52:04,15.0884443,0.0001095,53.2177,313.1824,77.8495,282.2619,5.7695e-05,6.31e-06,0.0,0 STARLINK-3825,1 52478U 22049AD  24181.74449257  .00000631  00000-0  57695-4 0  9997,2 52478  53.2177 313.1824 0001095  77.8495 282.2619 15.08844430119121,6917.867,95.437,540.489,538.974,0.0
52478.0,STARLINK-3825,PAYLOAD,2024-06-30 01:49:00,15.08834735,0.000123,53.2181,311.696,80.4291,279.684,-5.0714e-05,-1.095e-05,0.0,0 STARLINK-3825,1 52478U 22049AD  24182.07570209 -.00001095  00000-0 -50714-4 0  9998,2 52478  53.2181 311.6960 0001230  80.4291 279.6840 15.08834735119173,6917.896,95.438,540.612,538.911,0.0
52478.0,STARLINK-3825,PAYLOAD,2024-06-30 14:32:05,15.0884505,0.0001206,53.2169,309.3193,84.8645,275.2485,-0.00011465,-2.112e-05,0.0,0 STARLINK-3825,1 52478U 22049AD  24182.60562086 -.00002112  00000-0 -11465-3 0  9991,2 52478  53.2169 309.3193 0001206  84.8645 275.2485 15.08845050120334,6917.865,95.437,540.564,538.896,0.0
52478.0,STARLINK-3825,PAYLOAD,2024-06-30 16:07:27,15.08855423,0.0001056,53.2174,309.0175,84.5807,275.5306,-1.8249e-05,-5.78e-06,0.0,0 STARLINK-3825,1 52478U 22049AD  24182.67185081 -.00000578  00000-0 -18249-4 0  9996,2 52478  53.2174 309.0175 0001056  84.5807 275.5306 15.08855423119267,6917.833,95.437,540.429,538.968,0.0
52478.0,STARLINK-3825,PAYLOAD,2024-07-01 01:39:46,15.08849583,0.0001028,53.2171,307.235,93.2394,266.8716,-6.5908e-05,-1.337e-05,0.0,0 STARLINK-3825,1 52478U 22049AD  24183.06929368 -.00001337  00000-0 -65908-4 0  9992,2 52478  53.2171 307.2350 0001028  93.2394 266.8716 15.08849583119321,6917.851,95.437,540.427,539.005,0.0
52478.0,STARLINK-3825,PAYLOAD,2024-07-01 12:47:29,15.08833562,0.0001097,53.2168,305.1568,72.6971,287.4141,0.00017284,2.464e-05,0.0,0 STARLINK-3825,1 52478U 22049AD  24183.53297998  .00002464  00000-0  17284-3 0  9994,2 52478  53.2168 305.1568 0001097  72.6971 287.4141 15.08833562119391,6917.9,95.438,540.524,539.006,0.0
52478.0,STARLINK-3825,PAYLOAD,2024-07-01 14:22:52,15.08834201,0.0001039,53.216,304.8587,73.2473,286.8633,0.00017815,2.548e-05,0.0,0 STARLINK-3825,1 52478U 22049AD  24183.59921931  .00002548  00000-0  17815-3 0  9994,2 52478  53.2160 304.8587 0001039  73.2473 286.8633 15.08834201120482,6917.898,95.438,540.482,539.044,0.0
52478.0,STARLINK-3825,PAYLOAD,2024-07-02 14:13:39,15.08835202,0.0001186,53.216,300.3959,91.1143,268.9985,0.00015489,2.178e-05,0.0,0 STARLINK-3825,1 52478U 22049AD  24184.59282186  .00002178  00000-0  15489-3 0  9991,2 52478  53.2160 300.3959 0001186  91.1143 268.9985 15.08835202119551,6917.895,95.438,540.581,538.94,0.0
52478.0,STARLINK-3825,PAYLOAD,2024-07-03 14:04:27,15.08833673,0.0001109,53.2177,295.9369,92.969,267.1429,7.5752e-05,9.18e-06,0.0,0 STARLINK-3825,1 52478U 22049AD  24185.58642642  .00000918  00000-0  75752-4 0  9998,2 52478  53.2177 295.9369 0001109  92.9690 267.1429 15.08833673120785,6917.9,95.438,540.532,538.998,0.0
52478.0,STARLINK-3825,PAYLOAD,2024-07-04 13:55:13,15.08841293,0.0001198,53.217,291.4758,94.8643,265.2486,7.9851e-05,9.83e-06,0.0,0 STARLINK-3825,1 52478U 22049AD  24186.58002277  .00000983  00000-0  79851-4 0  9999,2 52478  53.2170 291.4758 0001198  94.8643 265.2486 15.08841293120934,6917.876,95.437,540.57,538.913,0.0
52478.0,STARLINK-3825,PAYLOAD,2024-07-05 13:46:00,15.08853013,0.0001264,53.218,287.0168,83.5517,276.5619,0.00022009,3.218e-05,0.0,0 STARLINK-3825,1 52478U 22049AD  24187.57361216  .00003218  00000-0  22009-3 0  9996,2 52478  53.2180 287.0168 0001264  83.5517 276.5619 15.08853013120004,6917.841,95.437,540.58,538.831,0.0
52478.0,STARLINK-3825,PAYLOAD,2024-07-06 05:39:52,15.08839141,0.0001344,53.2183,284.0484,99.0889,261.0256,5.423e-05,5.75e-06,0.0,0 STARLINK-3825,1 52478U 22049AD  24188.23602495  .00000575  00000-0  54230-4 0  9992,2 52478  53.2183 284.0484 0001344  99.0889 261.0256 15.08839141120101,6917.883,95.438,540.678,538.818,0.0
52478.0,STARLINK-3825,PAYLOAD,2024-07-06 13:36:48,15.08831598,0.0001338,53.2187,282.5602,97.2681,262.8464,-3.1275e-05,-7.85e-06,0.0,0 STARLINK-3825,1 52478U 22049AD  24188.56723226 -.00000785  00000-0 -31275-4 0  9993,2 52478  53.2187 282.5602 0001338  97.2681 262.8464 15.08831598120156,6917.906,95.438,540.697,538.845,0.0
52478.0,STARLINK-3825,PAYLOAD,2024-07-07 10:16:49,15.08833475,0.000144,53.2189,278.6928,87.8082,272.3075,-4.1372e-05,-9.46e-06,0.0,0 STARLINK-3825,1 52478U 22049AD  24189.42835333 -.00000946  00000-0 -41372-4 0  9990,2 52478  53.2189 278.6928 0001440  87.8082 272.3075 15.08833475121363,6917.9,95.438,540.762,538.769,0.0
52478.0,STARLINK-3825,PAYLOAD,2024-07-08 13:18:22,15.08842841,0.000127,53.2166,273.6352,90.6156,269.4982,0.00015544,2.187e-05,0.0,0 STARLINK-3825,1 52478U 22049AD  24190.55442255  .00002187  00000-0  15544-3 0  9991,2 52478  53.2166 273.6352 0001270  90.6156 269.4982 15.08842841120459,6917.872,95.437,540.615,538.858,0.0
52478.0,STARLINK-3825,PAYLOAD,2024-07-09 05:12:14,15.08835319,0.0001378,53.2167,270.6627,83.0051,277.1098,8.4527e-05,1.057e-05,0.0,0 STARLINK-3825,1 52478U 22049AD  24191.21683013  .00001057  00000-0  84527-4 0  9997,2 52478  53.2167 270.6627 0001378  83.0051 277.1098 15.08835319120558,6917.895,95.438,540.713,538.806,0.0
52478.0,STARLINK-3825,PAYLOAD,2024-07-09 11:33:46,15.08834548,0.0001296,53.2167,269.473,84.4635,275.6505,8.5747e-05,1.077e-05,0.0,0 STARLINK-3825,1 52478U 22049AD  24191.48179061  .00001077  00000-0  85747-4 0  9996,2 52478  53.2167 269.4730 0001296  84.4635 275.6505 15.08834548121674,6917.897,95.438,540.659,538.865,0.0
52478.0,STARLINK-3825,PAYLOAD,2024-07-10 11:24:33,15.08837408,0.0001183,53.2159,265.0109,89.8439,270.2688,4.7356e-05,4.66e-06,0.0,0 STARLINK-3825,1 52478U 22049AD  24192.47539040  .00000466  00000-0  47356-4 0  9998,2 52478  53.2159 265.0109 0001183  89.8439 270.2688 15.08837408120741,6917.888,95.438,540.572,538.935,0.0
52478.0,STARLINK-3825,PAYLOAD,2024-07-10 14:35:19,15.08842959,0.0001258,53.2162,264.4161,90.6541,269.4596,-5.5058e-06,-3.76e-06,0.0,0 STARLINK-3825,1 52478U 22049AD  24192.60786836 -.00000376  00000-0 -55058-5 0  9991,2 52478  53.2162 264.4161 0001258  90.6541 269.4596 15.08842959121840,6917.871,95.437,540.607,538.866,0.0
52478.0,STARLINK-3825,PAYLOAD,2024-07-11 11:15:21,15.08796707,0.0001716,53.2171,260.5508,99.2614,260.8573,0.00065352,0.00010116,0.0,0 STARLINK-3825,1 52478U 22049AD  24193.46899896  .00010116  00000-0  65352-3 0  9994,2 52478  53.2171 260.5508 0001716  99.2614 260.8573 15.08796707121970,6918.013,95.44,541.065,538.691,0.0
52478.0,STARLINK-3825,PAYLOAD,2024-07-12 04:44:35,15.0883593,0.0001482,53.217,257.2799,99.0802,261.0358,4.5957e-05,4.43e-06,0.0,0 STARLINK-3825,1 52478U 22049AD  24194.19763328  .00000443  00000-0  45957-4 0  9997,2 52478  53.2170 257.2799 0001482  99.0802 261.0358 15.08835930121001,6917.893,95.438,540.783,538.733,0.0
52478.0,STARLINK-3825,PAYLOAD,2024-07-12 14:16:54,15.08838588,0.0001443,53.217,255.4966,95.4894,264.6263,6.2523e-05,7.07e-06,0.0,0 STARLINK-3825,1 52478U 22049AD  24194.59507222  .00000707  00000-0  62523-4 0  9991,2 52478  53.2170 255.4966 0001443  95.4894 264.6263 15.08838588122147,6917.885,95.438,540.748,538.751,0.0
52478.0,STARLINK-3825,PAYLOAD,2024-07-12 20:38:27,15.08834637,0.0001387,53.2166,254.3056,90.3933,269.7218,-9.9423e-07,-3.04e-06,0.0,0 STARLINK-3825,1 52478U 22049AD  24194.86003716 -.00000304  00000-0 -99423-6 0  9996,2 52478  53.2166 254.3056 0001387  90.3933 269.7218 15.08834637122186,6917.897,95.438,540.721,538.802,0.0
52478.0,STARLINK-3825,PAYLOAD,2024-07-13 10:56:55,15.08839245,0.0001321,53.2166,251.6307,93.3275,266.7869,2.0267e-05,3.5e-07,0.0,0 STARLINK-3825,1 52478U 22049AD  24195.45619522  .00000035  00000-0  20267-4 0  9997,2 52478  53.2166 251.6307 0001321  93.3275 266.7869 15.08839245121194,6917.883,95.438,540.662,538.834,0.0
52478.0,STARLINK-3825,PAYLOAD,2024-07-13 20:29:13,15.08840282,0.0001308,53.2163,249.8464,91.7648,268.3494,5.7128e-05,6.21e-06,0.0,0 STARLINK-3825,1 52478U 22049AD  24195.85363424  .00000621  00000-0  57128-4 0  9995,2 52478  53.2163 249.8464 0001308  91.7648 268.3494 15.08840282122337,6917.88,95.438,540.649,538.84,0.0
